[{"OBJECT_NAME":"STARLINK-32253","OBJECT_ID":"2024-152P","EPOCH":"2026-03-09T19:57:56.807136","MEAN_MOTION":15.30221532,"ECCENTRICITY":6.674e-5,"INCLINATION":53.1576,"RA_OF_ASC_NODE":267.6861,"ARG_OF_PERICENTER":105.9856,"MEAN_ANOMALY":254.1218,"EPHEMERIS_TYPE":0,"CLASSIFICATION_TYPE":"U","NORAD_CAT_ID":60733,"ELEMENT_SET_NO":999,"REV_AT_EPOCH":8682,"BSTAR":0.00057572153,"MEAN_MOTION_DOT":0.00016742,"MEAN_MOTION_DDOT":0},{"OBJECT_NAME":"FENGYUN 1C DEB","OBJECT_ID":"1999-025DFQ","EPOCH":"2026-03-09T11:05:09.183840","MEAN_MOTION":15.08584918,"ECCENTRICITY":0.01333512,"INCLINATION":99.3393,"RA_OF_ASC_NODE":158.3034,"ARG_OF_PERICENTER":18.9579,"MEAN_ANOMALY":341.654,"EPHEMERIS_TYPE":0,"CLASSIFICATION_TYPE":"U","NORAD_CAT_ID":33679,"ELEMENT_SET_NO":999,"REV_AT_EPOCH":95428,"BSTAR":0.0014594523,"MEAN_MOTION_DOT":0.00028083,"MEAN_MOTION_DDOT":0}]
